PLEIADES 1A             
1 38012U 11076F   26202.29496845  .00000063  00000+0  23392-4 0  9999
2 38012  98.1959 276.9373 0001578  78.3720  12.0267 14.58548582776965
PLEIADES 1B             
1 39019U 12068A   26202.31178815 -.00000119  00000+0 -15762-4 0  9992
2 39019  98.1930 276.8911 0001468  78.6323 281.5042 14.58535496725822
